[{"OBJECT_NAME":"STARLINK-31860","OBJECT_ID":"2024-084S","EPOCH":"2025-11-14T08:24:35.679744","MEAN_MOTION":15.27563513,"ECCENTRICITY":0.0002818,"INCLINATION":43.007,"RA_OF_ASC_NODE":329.6983,"ARG_OF_PERICENTER":276.4653,"MEAN_ANOMALY":83.5877,"EPHEMERIS_TYPE":0,"CLASSIFICATION_TYPE":"U","NORAD_CAT_ID":59670,"ELEMENT_SET_NO":999,"REV_AT_EPOCH":8675,"BSTAR":-0.00014941,"MEAN_MOTION_DOT":-4.37e-5,"MEAN_MOTION_DDOT":0},{"OBJECT_NAME":"STARLINK-31854","OBJECT_ID":"2024-084T","EPOCH":"2025-11-14T15:12:12.044736","MEAN_MOTION":15.27569249,"ECCENTRICITY":7.86e-5,"INCLINATION":42.9984,"RA_OF_ASC_NODE":298.5477,"ARG_OF_PERICENTER":315.0105,"MEAN_ANOMALY":45.0683,"EPHEMERIS_TYPE":0,"CLASSIFICATION_TYPE":"U","NORAD_CAT_ID":59671,"ELEMENT_SET_NO":999,"REV_AT_EPOCH":8713,"BSTAR":0.00068066,"MEAN_MOTION_DOT":0.00018509,"MEAN_MOTION_DDOT":0},{"OBJECT_NAME":"STARLINK-31842","OBJECT_ID":"2024-084U","EPOCH":"2025-11-15T17:32:58.661664","MEAN_MOTION":15.27581575,"ECCENTRICITY":0.000232,"INCLINATION":43.0072,"RA_OF_ASC_NODE":322.002,"ARG_OF_PERICENTER":278.0982,"MEAN_ANOMALY":81.9607,"EPHEMERIS_TYPE":0,"CLASSIFICATION_TYPE":"U","NORAD_CAT_ID":59672,"ELEMENT_SET_NO":999,"REV_AT_EPOCH":8698,"BSTAR":6.6632e-5,"MEAN_MOTION_DOT":1.571e-5,"MEAN_MOTION_DDOT":0},{"OBJECT_NAME":"STARLINK-31871","OBJECT_ID":"2024-084V","EPOCH":"2025-11-15T17:13:46.891776","MEAN_MOTION":15.27580483,"ECCENTRICITY":0.000116,"INCLINATION":43.003,"RA_OF_ASC_NODE":325.3551,"ARG_OF_PERICENTER":277.5777,"MEAN_ANOMALY":82.4943,"EPHEMERIS_TYPE":0,"CLASSIFICATION_TYPE":"U","NORAD_CAT_ID":59673,"ELEMENT_SET_NO":999,"REV_AT_EPOCH":8694,"BSTAR":0.00014672,"MEAN_MOTION_DOT":3.777e-5,"MEAN_MOTION_DDOT":0},{"OBJECT_NAME":"STARLINK-31875","OBJECT_ID":"2024-084W","EPOCH":"2025-11-14T08:13:29.774208","MEAN_MOTION":15.27558426,"ECCENTRICITY":0.000238,"INCLINATION":43.0064,"RA_OF_ASC_NODE":329.6381,"ARG_OF_PERICENTER":252.593,"MEAN_ANOMALY":107.4661,"EPHEMERIS_TYPE":0,"CLASSIFICATION_TYPE":"U","NORAD_CAT_ID":59674,"ELEMENT_SET_NO":999,"REV_AT_EPOCH":8677,"BSTAR":-1.4984e-5,"MEAN_MOTION_DOT":-6.75e-6,"MEAN_MOTION_DDOT":0},{"OBJECT_NAME":"STARLINK-31877","OBJECT_ID":"2024-084X","EPOCH":"2025-11-15T17:36:00.029088","MEAN_MOTION":15.27589302,"ECCENTRICITY":0.0001061,"INCLINATION":43.0031,"RA_OF_ASC_NODE":325.4738,"ARG_OF_PERICENTER":292.5069,"MEAN_ANOMALY":67.5671,"EPHEMERIS_TYPE":0,"CLASSIFICATION_TYPE":"U","NORAD_CAT_ID":59675,"ELEMENT_SET_NO":999,"REV_AT_EPOCH":8694,"BSTAR":0.0003417,"MEAN_MOTION_DOT":9.155e-5,"MEAN_MOTION_DDOT":0},{"OBJECT_NAME":"STARLINK-31884","OBJECT_ID":"2024-084Y","EPOCH":"2025-11-14T08:22:03.489600","MEAN_MOTION":15.2757272,"ECCENTRICITY":0.000131,"INCLINATION":43.0007,"RA_OF_ASC_NODE":333.1636,"ARG_OF_PERICENTER":256.2432,"MEAN_ANOMALY":103.8274,"EPHEMERIS_TYPE":0,"CLASSIFICATION_TYPE":"U","NORAD_CAT_ID":59676,"ELEMENT_SET_NO":999,"REV_AT_EPOCH":8673,"BSTAR":3.8148e-6,"MEAN_MOTION_DOT":-1.57e-6,"MEAN_MOTION_DDOT":0},{"OBJECT_NAME":"STARLINK-32108","OBJECT_ID":"2024-086A","EPOCH":"2025-11-15T19:26:31.898688","MEAN_MOTION":15.27552253,"ECCENTRICITY":1.17e-5,"INCLINATION":43.0018,"RA_OF_ASC_NODE":346.6395,"ARG_OF_PERICENTER":196.5597,"MEAN_ANOMALY":163.5251,"EPHEMERIS_TYPE":0,"CLASSIFICATION_TYPE":"U","NORAD_CAT_ID":59682,"ELEMENT_SET_NO":999,"REV_AT_EPOCH":8664,"BSTAR":0.00079573,"MEAN_MOTION_DOT":0.00021681,"MEAN_MOTION_DDOT":0},{"OBJECT_NAME":"STARLINK-32080","OBJECT_ID":"2024-086B","EPOCH":"2025-11-15T08:58:51.928032","MEAN_MOTION":15.27572435,"ECCENTRICITY":0.0002123,"INCLINATION":42.9972,"RA_OF_ASC_NODE":349.3888,"ARG_OF_PERICENTER":280.1174,"MEAN_ANOMALY":79.9437,"EPHEMERIS_TYPE":0,"CLASSIFICATION_TYPE":"U","NORAD_CAT_ID":59683,"ELEMENT_SET_NO":999,"REV_AT_EPOCH":8659,"BSTAR":-0.00011207,"MEAN_MOTION_DOT":-3.344e-5,"MEAN_MOTION_DDOT":0},{"OBJECT_NAME":"STARLINK-32091","OBJECT_ID":"2024-086C","EPOCH":"2025-11-15T08:38:31.357824","MEAN_MOTION":15.27579183,"ECCENTRICITY":0.0001361,"INCLINATION":43.0026,"RA_OF_ASC_NODE":338.069,"ARG_OF_PERICENTER":261.9656,"MEAN_ANOMALY":98.1041,"EPHEMERIS_TYPE":0,"CLASSIFICATION_TYPE":"U","NORAD_CAT_ID":59684,"ELEMENT_SET_NO":999,"REV_AT_EPOCH":8672,"BSTAR":0.00022219,"MEAN_MOTION_DOT":5.857e-5,"MEAN_MOTION_DDOT":0},{"OBJECT_NAME":"STARLINK-32085","OBJECT_ID":"2024-086D","EPOCH":"2025-11-15T11:17:55.639104","MEAN_MOTION":15.27601127,"ECCENTRICITY":0.0001113,"INCLINATION":43.0013,"RA_OF_ASC_NODE":344.9659,"ARG_OF_PERICENTER":309.7412,"MEAN_ANOMALY":50.3342,"EPHEMERIS_TYPE":0,"CLASSIFICATION_TYPE":"U","NORAD_CAT_ID":59685,"ELEMENT_SET_NO":999,"REV_AT_EPOCH":8664,"BSTAR":0.00038463,"MEAN_MOTION_DOT":0.00010344,"MEAN_MOTION_DDOT":0},{"OBJECT_NAME":"STARLINK-32100","OBJECT_ID":"2024-086E","EPOCH":"2025-11-15T07:06:24.806016","MEAN_MOTION":15.2756046,"ECCENTRICITY":0.0001405,"INCLINATION":43.0052,"RA_OF_ASC_NODE":327.823,"ARG_OF_PERICENTER":262.7507,"MEAN_ANOMALY":97.3185,"EPHEMERIS_TYPE":0,"CLASSIFICATION_TYPE":"U","NORAD_CAT_ID":59686,"ELEMENT_SET_NO":999,"REV_AT_EPOCH":8682,"BSTAR":-3.7109e-5,"MEAN_MOTION_DOT":-1.283e-5,"MEAN_MOTION_DDOT":0},{"OBJECT_NAME":"STARLINK-32089","OBJECT_ID":"2024-086F","EPOCH":"2025-11-14T19:14:09.659616","MEAN_MOTION":15.27561389,"ECCENTRICITY":0.0002156,"INCLINATION":43.0046,"RA_OF_ASC_NODE":348.5424,"ARG_OF_PERICENTER":250.1696,"MEAN_ANOMALY":109.8924,"EPHEMERIS_TYPE":0,"CLASSIFICATION_TYPE":"U","NORAD_CAT_ID":59687,"ELEMENT_SET_NO":999,"REV_AT_EPOCH":8654,"BSTAR":0.00031347,"MEAN_MOTION_DOT":8.369e-5,"MEAN_MOTION_DDOT":0},{"OBJECT_NAME":"STARLINK-32103","OBJECT_ID":"2024-086G","EPOCH":"2025-11-15T09:21:48.262752","MEAN_MOTION":15.27576613,"ECCENTRICITY":7.97e-5,"INCLINATION":42.9979,"RA_OF_ASC_NODE":334.8344,"ARG_OF_PERICENTER":71.0578,"MEAN_ANOMALY":289.036,"EPHEMERIS_TYPE":0,"CLASSIFICATION_TYPE":"U","NORAD_CAT_ID":59688,"ELEMENT_SET_NO":999,"REV_AT_EPOCH":8675,"BSTAR":0.00025083,"MEAN_MOTION_DOT":6.646e-5,"MEAN_MOTION_DDOT":0},{"OBJECT_NAME":"STARLINK-32105","OBJECT_ID":"2024-086H","EPOCH":"2025-11-15T09:12:16.149600","MEAN_MOTION":15.27576486,"ECCENTRICITY":9.93e-5,"INCLINATION":43.0051,"RA_OF_ASC_NODE":345.1682,"ARG_OF_PERICENTER":290.322,"MEAN_ANOMALY":69.7525,"EPHEMERIS_TYPE":0,"CLASSIFICATION_TYPE":"U","NORAD_CAT_ID":59689,"ELEMENT_SET_NO":999,"REV_AT_EPOCH":8663,"BSTAR":0.0002272,"MEAN_MOTION_DOT":5.994e-5,"MEAN_MOTION_DDOT":0},{"OBJECT_NAME":"STARLINK-32106","OBJECT_ID":"2024-086J","EPOCH":"2025-11-15T17:46:49.033056","MEAN_MOTION":15.27583303,"ECCENTRICITY":0.0001942,"INCLINATION":43.0021,"RA_OF_ASC_NODE":335.7707,"ARG_OF_PERICENTER":276.4247,"MEAN_ANOMALY":83.6383,"EPHEMERIS_TYPE":0,"CLASSIFICATION_TYPE":"U","NORAD_CAT_ID":59690,"ELEMENT_SET_NO":999,"REV_AT_EPOCH":8677,"BSTAR":3.7269e-5,"MEAN_MOTION_DOT":7.63e-6,"MEAN_MOTION_DDOT":0},{"OBJECT_NAME":"STARLINK-32090","OBJECT_ID":"2024-086K","EPOCH":"2025-11-15T08:53:17.301696","MEAN_MOTION":15.27590517,"ECCENTRICITY":0.0002181,"INCLINATION":43.0015,"RA_OF_ASC_NODE":349.3853,"ARG_OF_PERICENTER":272.1069,"MEAN_ANOMALY":87.9533,"EPHEMERIS_TYPE":0,"CLASSIFICATION_TYPE":"U","NORAD_CAT_ID":59691,"ELEMENT_SET_NO":999,"REV_AT_EPOCH":8658,"BSTAR":0.00016547,"MEAN_MOTION_DOT":4.295e-5,"MEAN_MOTION_DDOT":0}]
