STARLINK-31860          
1 59670U 24084S   25318.35041296 -.00004370  00000+0 -14941-3 0  9991
2 59670  43.0070 329.6983 0002818 276.4653  83.5877 15.27563513 86757
STARLINK-31854          
1 59671U 24084T   25318.63347274  .00018509  00000+0  68066-3 0  9992
2 59671  42.9984 298.5477 0000786 315.0105  45.0683 15.27569249 87139
STARLINK-31842          
1 59672U 24084U   25319.73123451  .00001571  00000+0  66632-4 0  9993
2 59672  43.0072 322.0020 0002320 278.0982  81.9607 15.27581575 86987
STARLINK-31871          
1 59673U 24084V   25319.71790384  .00003777  00000+0  14672-3 0  9993
2 59673  43.0030 325.3551 0001160 277.5777  82.4943 15.27580483 86946
STARLINK-31875          
1 59674U 24084W   25318.34270572 -.00000675  00000+0 -14984-4 0  9997
2 59674  43.0064 329.6381 0002380 252.5930 107.4661 15.27558426 86779
STARLINK-31877          
1 59675U 24084X   25319.73333367  .00009155  00000+0  34170-3 0  9992
2 59675  43.0031 325.4738 0001061 292.5069  67.5671 15.27589302 86949
STARLINK-31884          
1 59676U 24084Y   25318.34865150 -.00000157  00000+0  38148-5 0  9994
2 59676  43.0007 333.1636 0001310 256.2432 103.8274 15.27572720 86730
STARLINK-32108          
1 59682U 24086A   25319.81009142  .00021681  00000+0  79573-3 0  9996
2 59682  43.0018 346.6395 0000117 196.5597 163.5251 15.27552253 86649
STARLINK-32080          
1 59683U 24086B   25319.37421213 -.00003344  00000+0 -11207-3 0  9993
2 59683  42.9972 349.3888 0002123 280.1174  79.9437 15.27572435 86598
STARLINK-32091          
1 59684U 24086C   25319.36008516  .00005857  00000+0  22219-3 0  9994
2 59684  43.0026 338.0690 0001361 261.9656  98.1041 15.27579183 86728
STARLINK-32085          
1 59685U 24086D   25319.47078286  .00010344  00000+0  38463-3 0  9993
2 59685  43.0013 344.9659 0001113 309.7412  50.3342 15.27601127 86641
STARLINK-32100          
1 59686U 24086E   25319.29612044 -.00001283  00000+0 -37109-4 0  9991
2 59686  43.0052 327.8230 0001405 262.7507  97.3185 15.27560460 86827
STARLINK-32089          
1 59687U 24086F   25318.80150069  .00008369  00000+0  31347-3 0  9999
2 59687  43.0046 348.5424 0002156 250.1696 109.8924 15.27561389 86540
STARLINK-32103          
1 59688U 24086G   25319.39014193  .00006646  00000+0  25083-3 0  9998
2 59688  42.9979 334.8344 0000797  71.0578 289.0360 15.27576613 86755
STARLINK-32105          
1 59689U 24086H   25319.38352025  .00005994  00000+0  22720-3 0  9997
2 59689  43.0051 345.1682 0000993 290.3220  69.7525 15.27576486 86638
STARLINK-32106          
1 59690U 24086J   25319.74084529  .00000763  00000+0  37269-4 0  9994
2 59690  43.0021 335.7707 0001942 276.4247  83.6383 15.27583303 86777
STARLINK-32090          
1 59691U 24086K   25319.37033914  .00004295  00000+0  16547-3 0  9995
2 59691  43.0015 349.3853 0002181 272.1069  87.9533 15.27590517 86583
